NORAD_CAT_ID,OBJECT_NAME,OBJECT_TYPE,EPOCH,MEAN_MOTION,ECCENTRICITY,INCLINATION,RA_OF_ASC_NODE,ARG_OF_PERICENTER,MEAN_ANOMALY,BSTAR,MEAN_MOTION_DOT,MEAN_MOTION_DDOT,TLE_LINE0,TLE_LINE1,TLE_LINE2,SEMIMAJOR_AXIS,PERIOD,APOGEE,PERIGEE,DECAYED
50193.0,STARLINK-3261,PAYLOAD,2022-10-02 20:27:52,15.08827958,0.0001935,53.2174,107.814,43.8376,316.2769,-3.0137e-05,-7.68e-06,0.0,0 STARLINK-3261,1 50193U 21125AP  22275.85268962 -.00000768  00000-0 -30137-4 0  9994,2 50193  53.2174 107.8140 0001935  43.8376 316.2769 15.08827958 47493,6917.917,95.438,541.121,538.444,0.0
50193.0,STARLINK-3261,PAYLOAD,2022-10-03 06:00:11,15.08833138,0.0001921,53.2175,106.0297,45.3352,314.7797,1.4595e-05,-5.6e-07,0.0,0 STARLINK-3261,1 50193U 21125AP  22276.25012751 -.00000056  00000-0  14595-4 0  9991,2 50193  53.2175 106.0297 0001921  45.3352 314.7797 15.08833138 47552,6917.901,95.438,541.095,538.437,0.0
50193.0,STARLINK-3261,PAYLOAD,2022-10-03 20:18:38,15.08846286,0.0001964,53.2175,103.3531,45.7566,314.3587,3.5719e-05,2.8e-06,0.0,0 STARLINK-3261,1 50193U 21125AP  22276.84627963  .00000280  00000-0  35719-4 0  9992,2 50193  53.2175 103.3531 0001964  45.7566 314.3587 15.08846286 47642,6917.861,95.437,541.085,538.368,0.0
50193.0,STARLINK-3261,PAYLOAD,2022-10-04 12:12:29,15.08842382,0.0001801,53.2173,100.3794,51.0324,309.0828,0.00021625,3.155e-05,0.0,0 STARLINK-3261,1 50193U 21125AP  22277.50867556  .00003155  00000-0  21625-3 0  9994,2 50193  53.2173 100.3794 0001801  51.0324 309.0828 15.08842382 47743,6917.873000000001,95.437,540.984,538.492,0.0
50193.0,STARLINK-3261,PAYLOAD,2022-10-04 18:34:02,15.08841409,0.0001966999999999,53.2179,99.1902,49.5994,310.517,0.00019321,2.788e-05,0.0,0 STARLINK-3261,1 50193U 21125AP  22277.77363805  .00002788  00000-0  19321-3 0  9992,2 50193  53.2179  99.1902 0001967  49.5994 310.5170 15.08841409 47783,6917.876,95.437,541.102,538.38,0.0
50193.0,STARLINK-3261,PAYLOAD,2022-10-05 05:41:44,15.08835615,0.0001971,53.2169,97.1087,49.0601,311.0561,8.410799999999999e-05,1.051e-05,0.0,0 STARLINK-3261,1 50193U 21125AP  22278.23732512  .00001051  00000-0  84108-4 0  9997,2 50193  53.2169  97.1087 0001971  49.0601 311.0561 15.08835615 47321,6917.894,95.438,541.122,538.395,0.0
50193.0,STARLINK-3261,PAYLOAD,2022-10-05 12:03:17,15.08839766,0.0001906,53.218,95.9183,45.6069,314.5079,8.955700000000001e-05,1.137e-05,0.0,0 STARLINK-3261,1 50193U 21125AP  22278.50228241  .00001137  00000-0  89557-4 0  9994,2 50193  53.2180  95.9183 0001906  45.6069 314.5079 15.08839766 47890,6917.880999999999,95.438,541.065,538.428,0.0
50193.0,STARLINK-3261,PAYLOAD,2022-10-05 15:14:03,15.08843416,0.0002054,53.2169,95.3252,43.3936,316.7218,6.0397e-05,6.73e-06,0.0,0 STARLINK-3261,1 50193U 21125AP  22278.63476073  .00000673  00000-0  60397-4 0  9991,2 50193  53.2169  95.3252 0002054  43.3936 316.7218 15.08843416 47381,6917.87,95.437,541.156,538.314,0.0
50193.0,STARLINK-3261,PAYLOAD,2022-10-05 18:24:50,15.08838735,0.0001896,53.2172,94.7298,44.4073,315.7071,-7.8527e-05,-1.538e-05,0.0,0 STARLINK-3261,1 50193U 21125AP  22278.76724710 -.00001538  00000-0 -78527-4 0  9996,2 50193  53.2172  94.7298 0001896  44.4073 315.7071 15.08838735 47930,6917.884,95.438,541.061,538.438,0.0
50193.0,STARLINK-3261,PAYLOAD,2022-10-05 21:35:36,15.08840598,0.0001898,53.2174,94.1347,46.0221,314.0928,-6.3026e-05,-1.291e-05,0.0,0 STARLINK-3261,1 50193U 21125AP  22278.89972466 -.00001291  00000-0 -63026-4 0  9997,2 50193  53.2174  94.1347 0001898  46.0221 314.0928 15.08840598 47951,6917.879,95.438,541.057,538.431,0.0
50193.0,STARLINK-3261,PAYLOAD,2022-10-06 18:15:36,15.08840367,0.0001888,53.218,90.2699,39.8795,320.2336,2.1415e-05,5.3e-07,0.0,0 STARLINK-3261,1 50193U 21125AP  22279.76084036  .00000053  00000-0  21415-4 0  9990,2 50193  53.2180  90.2699 0001888  39.8795 320.2336 15.08840367 48081,6917.879,95.438,541.05,538.438,0.0
50193.0,STARLINK-3261,PAYLOAD,2022-10-07 11:44:50,15.08841962,0.000193,53.2181,86.9994,37.737,322.3757,8.4782e-05,1.061e-05,0.0,0 STARLINK-3261,1 50193U 21125AP  22280.48947749  .00001061  00000-0  84782-4 0  9996,2 50193  53.2181  86.9994 0001930  37.7370 322.3757 15.08841962 48190,6917.874,95.437,541.075,538.404,0.0
50193.0,STARLINK-3261,PAYLOAD,2022-10-07 18:06:23,15.08845441,0.0001937,53.2185,85.8093,32.4464,327.6647,-9.2635e-07,-3.03e-06,0.0,0 STARLINK-3261,1 50193U 21125AP  22280.75443739 -.00000303  00000-0 -92635-6 0  9994,2 50193  53.2185  85.8093 0001937  32.4464 327.6647 15.08845441 48232,6917.864000000001,95.437,541.069,538.389,0.0
50193.0,STARLINK-3261,PAYLOAD,2022-10-08 03:38:42,15.08828378,0.0001981,53.2183,84.0248,39.0383,321.0752,0.00018773,2.7e-05,0.0,0 STARLINK-3261,1 50193U 21125AP  22281.15188345  .00002700  00000-0  18773-3 0  9997,2 50193  53.2183  84.0248 0001981  39.0383 321.0752 15.08828378 47767,6917.916,95.438,541.151,538.41,0.0
50193.0,STARLINK-3261,PAYLOAD,2022-10-08 10:00:15,15.08837776,0.0001911,53.2185,82.8355,37.9523,322.1604,7.2447e-06,-1.73e-06,0.0,0 STARLINK-3261,1 50193U 21125AP  22281.41684168 -.00000173  00000-0  72447-5 0  9993,2 50193  53.2185  82.8355 0001911  37.9523 322.1604 15.08837776 48334,6917.887,95.438,541.0740000000002,538.43,0.0
50193.0,STARLINK-3261,PAYLOAD,2022-10-08 19:32:34,15.08828824,0.0001978,53.2188,81.0522,41.6654,318.4489,1.0035e-05,-1.29e-06,0.0,0 STARLINK-3261,1 50193U 21125AP  22281.81428898 -.00000129  00000-0  10035-4 0  9998,2 50193  53.2188  81.0522 0001978  41.6654 318.4489 15.08828824 48393,6917.915,95.438,541.148,538.411,0.0
50193.0,STARLINK-3261,PAYLOAD,2022-10-09 03:29:30,15.08823263,0.000206,53.2185,79.5651,40.5541,319.5604,2.754e-05,1.5e-06,0.0,0 STARLINK-3261,1 50193U 21125AP  22282.14549456  .00000150  00000-0  27540-4 0  9991,2 50193  53.2185  79.5651 0002060  40.5541 319.5604 15.08823263 47911,6917.932,95.439,541.222,538.371,0.0
50193.0,STARLINK-3261,PAYLOAD,2022-10-09 19:23:22,15.08829603,0.0002021999999999,53.2198,76.5921,49.5571,310.5597,1.4288e-05,-6.1e-07,0.0,0 STARLINK-3261,1 50193U 21125AP  22282.80789581 -.00000061  00000-0  14288-4 0  9996,2 50193  53.2198  76.5921 0002022  49.5571 310.5597 15.08829603 48548,6917.9119999999975,95.438,541.1759999999998,538.378,0.0
50193.0,STARLINK-3261,PAYLOAD,2022-10-10 03:20:17,15.08839179,0.0002176,53.2196,75.1045,43.9361,316.1804,5.8828e-05,6.48e-06,0.0,0 STARLINK-3261,1 50193U 21125AP  22283.13909029  .00000648  00000-0  58828-4 0  9992,2 50193  53.2196  75.1045 0002176  43.9361 316.1804 15.08839179 48590,6917.8830000000025,95.438,541.253,538.243,0.0
50193.0,STARLINK-3261,PAYLOAD,2022-10-10 12:52:35,15.08849504,0.0002101,53.2194,73.3202,44.6553,315.4608,0.00017648,2.522e-05,0.0,0 STARLINK-3261,1 50193U 21125AP  22283.53652040  .00002522  00000-0  17648-3 0  9991,2 50193  53.2194  73.3202 0002101  44.6553 315.4608 15.08849504 48128,6917.851,95.437,541.17,538.263,0.0
50193.0,STARLINK-3261,PAYLOAD,2022-10-10 19:14:08,15.08848657,0.0002070999999999,53.2199,72.1307,40.3332,319.7813,0.00015082,2.113e-05,0.0,0 STARLINK-3261,1 50193U 21125AP  22283.80148224  .00002113  00000-0  15082-3 0  9991,2 50193  53.2199  72.1307 0002071  40.3332 319.7813 15.08848657 48695,6917.854,95.437,541.1519999999998,538.286,0.0
50193.0,STARLINK-3261,PAYLOAD,2022-10-11 03:11:04,15.08839585,0.0002046999999999,53.2191,70.6426,36.3414,323.7717,0.00016373,2.319e-05,0.0,0 STARLINK-3261,1 50193U 21125AP  22284.13268678  .00002319  00000-0  16373-3 0  9996,2 50193  53.2191  70.6426 0002047  36.3414 323.7717 15.08839585 48217,6917.882,95.438,541.163,538.331,0.0
50193.0,STARLINK-3261,PAYLOAD,2022-10-11 12:43:24,15.08826681,0.0002072,53.2192,68.8604,40.316,319.7986,0.00013265,1.823e-05,0.0,0 STARLINK-3261,1 50193U 21125AP  22284.53013974  .00001823  00000-0  13265-3 0  9993,2 50193  53.2192  68.8604 0002072  40.3160 319.7986 15.08826681 48278,6917.920999999999,95.438,541.219,538.3530000000002,0.0
50193.0,STARLINK-3261,PAYLOAD,2022-10-11 19:04:56,15.08832713,0.0002105,53.2197,67.6712,42.0546,318.0608,6.585e-05,7.6e-06,0.0,0 STARLINK-3261,1 50193U 21125AP  22284.79509871  .00000760  00000-0  65850-4 0  9994,2 50193  53.2197  67.6712 0002105  42.0546 318.0608 15.08832713 48843,6917.903,95.438,541.224,538.311,0.0
50193.0,STARLINK-3261,PAYLOAD,2022-10-12 03:01:51,15.08844164,0.0001909999999999,53.2191,66.1825,37.7474,322.3652,8.7855e-05,1.111e-05,0.0,0 STARLINK-3261,1 50193U 21125AP  22285.12629046  .00001111  00000-0  87855-4 0  9999,2 50193  53.2191  66.1825 0001910  37.7474 322.3652 15.08844164 48367,6917.868,95.437,541.054,538.411,0.0
50193.0,STARLINK-3261,PAYLOAD,2022-10-12 12:34:10,15.08845462,0.0002049,53.2198,64.4001,39.2995,320.8146,3.5978e-06,-2.31e-06,0.0,0 STARLINK-3261,1 50193U 21125AP  22285.52373161 -.00000231  00000-0  35978-5 0  9990,2 50193  53.2198  64.4001 0002049  39.2995 320.8146 15.08845462 48958,6917.864000000001,95.437,541.146,538.311,0.0
50193.0,STARLINK-3261,PAYLOAD,2022-10-12 18:55:42,15.08843656,0.0002149,53.2195,63.2104,38.2981,321.8163,1.77e-05,-7e-08,0.0,0 STARLINK-3261,1 50193U 21125AP  22285.78869189 -.00000007  00000-0  17700-4 0  9991,2 50193  53.2195  63.2104 0002149  38.2981 321.8163 15.08843656 48998,6917.869000000002,95.437,541.221,538.248,0.0
50193.0,STARLINK-3261,PAYLOAD,2022-10-13 12:24:57,15.08841241,0.0001973,53.22,59.9389,35.3715,324.7408,0.00016152,2.283e-05,0.0,0 STARLINK-3261,1 50193U 21125AP  22286.51732697  .00002283  00000-0  16152-3 0  9992,2 50193  53.2200  59.9389 0001973  35.3715 324.7408 15.08841241 49105,6917.877,95.437,541.106,538.377,0.0
50193.0,STARLINK-3261,PAYLOAD,2022-10-13 15:35:43,15.08842025,0.0001998,53.2197,59.3438,32.5764,327.5351,0.00016473,2.335e-05,0.0,0 STARLINK-3261,1 50193U 21125AP  22286.64980638  .00002335  00000-0  16473-3 0  9990,2 50193  53.2197  59.3438 0001998  32.5764 327.5351 15.08842025 48590,6917.874,95.437,541.121,538.357,0.0
